KUIPER-00513            
1 69598U 26140G   26196.20024427  .00012204  00000+0  32939-3 0  9992
2 69598  51.8792 263.2298 0007352 338.4092  21.6584 15.38157939  5540
KUIPER-00516            
1 69599U 26140H   26196.20854233  .00011276  00000+0  31074-3 0  9996
2 69599  51.8768 263.2760 0007035 355.6705   4.4220 15.37595222  5544
KUIPER-00517            
1 69600U 26140J   26196.18502646  .00006104  00000+0  16624-3 0  9992
2 69600  51.8765 263.1235 0012943 272.7699  87.1807 15.38833871  5540
KUIPER-00520            
1 69601U 26140K   26195.55948032  .00007645  00000+0  21391-3 0  9994
2 69601  51.8804 266.4353 0006850 353.5232   6.5665 15.37636953  5440
KUIPER-00522            
1 69602U 26140L   26195.40239791  .00022536  00000+0  58784-3 0  9996
2 69602  51.8766 266.8758 0013533 262.0154  97.9298 15.38654927  5420
KUIPER-00528            
1 69603U 26140M   26195.56210615  .00007629  00000+0  21453-3 0  9997
2 69603  51.8773 266.4415 0005814   0.1790 359.9198 15.37486448  5447
KUIPER-00532            
1 69604U 26140N   26196.22339851  .00011068  00000+0  31555-3 0  9992
2 69604  51.8781 263.3701 0005551  36.4166 323.7197 15.36562401  5540
KUIPER-00533            
1 69605U 26140P   26195.54660388  .00017024  00000+0  45335-3 0  9998
2 69605  51.8782 266.3406 0008033 324.8783  35.1674 15.38270266  5444
KUIPER-00534            
1 69606U 26140Q   26196.17670394  .00020341  00000+0  53056-3 0  9992
2 69606  51.8811 263.0796 0012697 268.1117  91.8416 15.38734854  5548
KUIPER-00537            
1 69607U 26140R   26196.18245928  .00013506  00000+0  41247-3 0  9999
2 69607  51.8808 263.8486 0010198  57.0322 303.1642 15.34156003  5535
KUIPER-00538            
1 69608U 26140S   26195.55703666  .00007818  00000+0  21793-3 0  9991
2 69608  51.8800 266.4163 0006672 340.5884  19.4848 15.37720478  5445
KUIPER-00540            
1 69609U 26140T   26196.21886469  .00010330  00000+0  29142-3 0  9998
2 69609  51.8808 263.3520 0006640  24.4042 335.7258 15.36966584  5545
KUIPER-00541            
1 69610U 26140U   26195.54629566 -.00008088  00000+0 -19967-3 0  9991
2 69610  51.8805 266.3511 0007543 318.5864  41.4551 15.38428649  5442
KUIPER-00542            
1 69611U 26140V   26196.19470947  .00017651  00000+0  46935-3 0  9990
2 69611  51.8780 263.1882 0006969 307.3261  52.7090 15.38295487  5545
KUIPER-00543            
1 69612U 26140W   26195.50813029  .00011162  00000+0  31528-3 0  9990
2 69612  51.8792 266.8269 0008160  32.6543 327.4947 15.36830922  5432
KUIPER-00544            
1 69613U 26140X   26196.19918830  .00014293  00000+0  38361-3 0  9993
2 69613  51.8786 263.2162 0006761 320.6718  39.3777 15.38181292  5541
KUIPER-00546            
1 69614U 26140Y   26195.72275957 -.00157507  00000+0 -41837-2 0  9997
2 69614  51.8805 265.2809 0014337 257.3045 102.6340 15.38166665  5470
KUIPER-00547            
1 69615U 26140Z   26195.47856029  .00016324  00000+0  43981-3 0  9997
2 69615  51.8805 266.6446 0010914 287.1660  72.8132 15.37917453  5435
KUIPER-00549            
1 69616U 26140AA  26196.21379418  .00013123  00000+0  36275-3 0  9995
2 69616  51.8783 263.3105 0007935  16.4575 343.6668 15.37338802  5544
KUIPER-00550            
1 69617U 26140AB  26196.00002315  .00038172  00000+0  12193-2 0  9995
2 69617  51.8786 264.8862 0007643  61.6982 287.4180 15.32072068  4754
KUIPER-00551            
1 69618U 26140AC  26195.47110641  .00013109  00000+0  35160-3 0  9991
2 69618  51.8780 266.5873 0012174 275.8264  84.1335 15.38237315  5431
KUIPER-00554            
1 69619U 26140AD  26195.54172073  .00013725  00000+0  37084-3 0  9998
2 69619  51.8787 266.3099 0011174 288.8404  71.1371 15.37977697  5446
KUIPER-00555            
1 69620U 26140AE  26196.16670139  .00036831  00000+0  97529-3 0  9998
2 69620  51.8813 263.2641 0011346 278.5337 318.8284 15.37950920  5005
KUIPER-00556            
1 69621U 26140AF  26195.53801380  .00015129  00000+0  40298-3 0  9991
2 69621  51.8801 266.2922 0011952 265.1671  94.7952 15.38323989  5444
KUIPER-00557            
1 69622U 26140AG  26195.48240038  .00009361  00000+0  26028-3 0  9999
2 69622  51.8801 266.6669 0009869 297.9736  62.0251 15.37521058  5431
KUIPER-00560            
1 69623U 26140AH  26196.16670139  .00032950  00000+0  90229-3 0  9999
2 69623  51.8782 263.2463 0009189 310.0967 291.9563 15.36989056  5112
KUIPER-00561            
1 69624U 26140AJ  26195.67033773  .00011879  00000+0  31506-3 0  9992
2 69624  51.8811 265.6836 0008127 304.5903  55.4318 15.38721602  5467
KUIPER-00564            
1 69625U 26140AK  26195.54426352  .00014569  00000+0  40315-3 0  9995
2 69625  51.8801 266.3339 0009447 302.1244  57.8825 15.37196641  5446
KUIPER-00567            
1 69626U 26140AL  26195.47110635  .00014387  00000+0  38479-3 0  9998
2 69626  51.8779 266.5872 0012188 275.8734  84.0864 15.38238816  5437
KUIPER-00573            
1 69627U 26140AM  26196.20120255  .00013203  00000+0  36310-3 0  9998
2 69627  51.8773 263.2289 0009339 285.9826  74.0131 15.37481731  5549
